{
    "CCSDS_OMM_VERS": "3.0",
    "COMMENT": "GENERATED VIA SPACE-TRACK.ORG API",
    "CREATION_DATE": "2025-05-22T17:14:14",
    "ORIGINATOR": "18 SPCS",
    "OBJECT_NAME": "GALILEO 6 (262)",
    "OBJECT_ID": "2014-050B",
    "CENTER_NAME": "EARTH",
    "REF_FRAME": "TEME",
    "TIME_SYSTEM": "UTC",
    "MEAN_ELEMENT_THEORY": "SGP4",
    "EPOCH": "2025-05-21T19:55:37.540704",
    "MEAN_MOTION": "1.85520094",
    "ECCENTRICITY": "0.16300560",
    "INCLINATION": "49.3183",
    "RA_OF_ASC_NODE": "288.4746",
    "ARG_OF_PERICENTER": "165.0857",
    "MEAN_ANOMALY": "200.3770",
    "EPHEMERIS_TYPE": "0",
    "CLASSIFICATION_TYPE": "U",
    "NORAD_CAT_ID": "40129",
    "ELEMENT_SET_NO": "999",
    "REV_AT_EPOCH": "7322",
    "BSTAR": "0.00000000000000",
    "MEAN_MOTION_DOT": "-0.00000059",
    "MEAN_MOTION_DDOT": "0.0000000000000",
    "SEMIMAJOR_AXIS": "27977.433",
    "PERIOD": "776.196",
    "APOAPSIS": "26159.777",
    "PERIAPSIS": "17038.820",
    "OBJECT_TYPE": "PAYLOAD",
    "RCS_SIZE": "LARGE",
    "COUNTRY_CODE": "ESA",
    "LAUNCH_DATE": "2014-08-22",
    "SITE": "FRGUI",
    "DECAY_DATE": null,
    "FILE": "4736220",
    "GP_ID": "288142493",
    "TLE_LINE0": "0 GALILEO 6 (262)",
    "TLE_LINE1": "1 40129U 14050B   25141.83029561 -.00000059  00000-0  00000-0 0  9998",
    "TLE_LINE2": "2 40129  49.3183 288.4746 1630056 165.0857 200.3770  1.85520094 73225"
}